IRIDIUM 64 [+]          
1 25287U 98021C   07359.73114786  .00000095  00000-0  26949-4 0  8846
2 25287  86.3942 230.5448 0002186  78.4585 281.6848 14.34216312508869
IRIDIUM 65 [+]          
1 25288U 98021D   07359.73748602 -.00000185  00000-0 -73179-4 0  9353
2 25288  86.3940 230.5022 0002164  81.8912 278.2502 14.34215734508882
IRIDIUM 66 [+]          
1 25289U 98021E   07359.74384154  .00000135  00000-0  41169-4 0  8898
2 25289  86.3939 230.4328 0002191  82.5631 277.5804 14.34216557508886
IRIDIUM 67 [+]          
1 25290U 98021F   07359.75018479  .00000133  00000-0  40286-4 0  7082
2 25290  86.3946 230.5127 0002177  80.4495 279.6943 14.34216348508899
IRIDIUM 68 [+]          
1 25291U 98021G   07359.68674808  .00000109  00000-0  32014-4 0  9286
2 25291  86.3952 230.5953 0002202  80.4598 279.6852 14.34215764508853
IRIDIUM 69 [-]          
1 25319U 98026A   07359.79575271  .00000084  00000-0  21567-4 0  7380
2 25319  86.3974 259.3950 0004161  85.3707 274.7962 14.37008124505719
IRIDIUM 71 [-]          
1 25320U 98026B   07359.78161164  .00000081  00000-0  20511-4 0  6893
2 25320  86.3960 257.1237 0002259 127.0564 233.0840 14.37604658505965
IRIDIUM 70 [+]          
1 25342U 98032A   07359.71212271  .00000119  00000-0  35270-4 0  9469
2 25342  86.3952 230.6678 0002194  81.0478 279.0967 14.34215869502962
IRIDIUM 72 [+]          
1 25343U 98032B   07359.90875003  .00000162  00000-0  50871-4 0  9315
2 25343  86.3946 230.4215 0002221  82.2071 277.9384 14.34216890502992
IRIDIUM 73 [-]          
1 25344U 98032C   07359.68571185  .00000121  00000-0  27734-4 0  7758
2 25344  86.4416 222.7889 0003160  77.2652 282.8902 14.47038723506704
IRIDIUM 74 [S]          
1 25345U 98032D   07359.70239500  .00000127  00000-0  31864-4 0  9425
2 25345  86.4453 230.6095 0002238  76.8648 283.2799 14.42963193503594
IRIDIUM 75 [+]          
1 25346U 98032E   07359.70577368  .00000063  00000-0  15449-4 0  9614
2 25346  86.3951 230.6343 0002188  79.3020 280.8416 14.34215798503534
IRIDIUM 3 [+]           
1 25431U 98048A   07359.82970151  .00000172  00000-0  54414-4 0  8936
2 25431  86.3949 262.1806 0002290  74.2189 285.9263 14.34216804489497
IRIDIUM 76 [+]          
1 25432U 98048B   07359.77895918  .00000183  00000-0  58323-4 0  8236
2 25432  86.3945 262.0674 0001716  93.4462 266.6936 14.34216970489470
IRIDIUM 82 [+]          
1 25467U 98051A   07359.60868317  .00000088  00000-0  24198-4 0   614
2 25467  86.3946  28.5831 0003260  85.1791 274.9771 14.34220739490466
IRIDIUM 81 [+]          
1 25468U 98051B   07359.60233791  .00000094  00000-0  26655-4 0  8780
2 25468  86.3937  28.4900 0002324  86.1577 273.9879 14.34220924486689
IRIDIUM 80 [+]          
1 25469U 98051C   07359.65307926  .00000012  00000-0 -29271-5 0  8776
2 25469  86.3943  28.5573 0002364  87.4580 272.6878 14.34220386486694
IRIDIUM 77 [+]          
1 25471U 98051E   07359.79895602  .00000090  00000-0  24897-4 0   558
2 25471  86.3938  28.4226 0002813 110.9772 249.1718 14.34220951491910
IRIDIUM 2 [-]           
1 25527U 98066A   07359.72692303  .00000419  00000-0  33069-4 0  2189
2 25527  85.5636 227.5467 0009650 331.8898  28.1809 14.97629043497484
IRIDIUM 86 [+]          
1 25528U 98066B   07359.54816358 -.00000067  00000-0 -31159-4 0  1007
2 25528  86.3934 356.8033 0002931  98.1173 262.0351 14.34217058483200
IRIDIUM 84 [+]          
1 25530U 98066D   07359.71941161 -.00000073  00000-0 -33220-4 0  7677
2 25530  86.3935 356.8276 0002368  85.9429 274.2028 14.34217120480860
IRIDIUM 83 [+]          
1 25531U 98066E   07359.82089337 -.00000051  00000-0 -25374-4 0  8733
2 25531  86.3941 356.7800 0002318  84.5400 275.6063 14.34217251478236
IRIDIUM 20 [+]          
1 25577U 98074A   07359.81067340  .00000159  00000-0  49592-4 0  8095
2 25577  86.3945 262.0262 0002299  79.8158 280.3292 14.34216797472310
IRIDIUM 11 [S]          
1 25578U 98074B   07359.83232450 -.00000279  00000-0 -69865-4 0  9725
2 25578  86.5138 262.1670 0002360  80.5034 279.6448 14.54936207479129
IRIDIUM 14 [S]          
1 25777U 99032A   07359.75975934 -.00000302  00000-0 -75303-4 0  9454
2 25777  86.5135 230.5392 0002246  58.0969 302.0473 14.54936200453491
IRIDIUM 21 [+]          
1 25778U 99032B   07359.69308691  .00000141  00000-0  43207-4 0  8791
2 25778  86.3944 230.5829 0000586 149.8843 210.2390 14.34217110451977
IRIDIUM 91 [S]          
1 27372U 02005A   07359.86458647  .00000033  00000-0  16422-5 0  4362
2 27372  86.5785 293.9010 0007235  76.0579 284.1470 14.66604642314112
IRIDIUM 90 [S]          
1 27373U 02005B   07359.89545477 -.00000004  00000-0 -69753-5 0  4268
2 27373  87.0898 354.7744 0005700  21.0153 339.1270 14.42955761312221
IRIDIUM 94 [S]          
1 27374U 02005C   07359.87113363 -.00000119  00000-0 -25631-4 0  4557
2 27374  86.5768 293.5675 0002476  81.3712 278.7818 14.66603857314110
IRIDIUM 95 [S]          
1 27375U 02005D   07359.87722279  .00000151  00000-0  23036-4 0  4416
2 27375  86.5771 293.6958 0002598  80.2594 279.8905 14.66607020314116
IRIDIUM 96 [S]          
1 27376U 02005E   07359.88337804 -.00000098  00000-0 -21992-4 0  4594
2 27376  86.5772 293.5291 0002503  80.7716 279.3814 14.66604200314115
IRIDIUM 97 [+]          
1 27450U 02031A   07359.92527856 -.00000027  00000-0 -16778-4 0  3787
2 27450  86.3942 325.5157 0004568  42.3374 317.8166 14.34215883294125
IRIDIUM 98 [S]          
1 27451U 02031B   07359.64340824  .00000041  00000-0  63297-5 0  3744
2 27451  86.4483  28.5242 0006365  84.9676 275.2246 14.42966353293046
